{"type":"FeatureCollection","features":[{"type":"Feature","id":1,"geometry":{"type":"Point","coordinates":[-74.639672,45.31805]},"properties":{"OBJECTID":1,"stop_id":344,"West_Seg1":"ORIG_FID_2_ORIG_SEQ_2","West_Seg2":null,"stop_name":"Alexandria","East_Seg1":"ORIG_FID_2_ORIG_SEQ_3","East_Seg2":null,"stop_code":"ALEX","location_type":0,"stop_lon":-74.639672,"stop_lat":45.31805,"stop_timezone":"America/Toronto","parent_station":null,"wheelchair_boarding":1,"GLOBALID":"d19a953c-c0c5-48a1-ae27-5c13a7010bd5"}},{"type":"Feature","id":3,"geometry":{"type":"Point","coordinates":[-79.06333869,43.108937026]},"properties":{"OBJECTID":3,"stop_id":346,"West_Seg1":"ORIG_FID_8_ORIG_SEQ_5","West_Seg2":null,"stop_name":"Niagara Falls","East_Seg1":"ORIG_FID_8_ORIG_SEQ_6","East_Seg2":null,"stop_code":"NIAG","location_type":0,"stop_lon":-79.0633386904,"stop_lat":43.1089370258,"stop_timezone":"America/New_York","parent_station":null,"wheelchair_boarding":1,"GLOBALID":"b9a1e64d-be0c-41a3-a779-f899bb735ab1"}},{"type":"Feature","id":4,"geometry":{"type":"Point","coordinates":[-82.38892,42.9570900000001]},"properties":{"OBJECTID":4,"stop_id":341,"West_Seg1":null,"West_Seg2":null,"stop_name":"Sarnia","East_Seg1":"ORIG_FID_7_ORIG_SEQ_11","East_Seg2":null,"stop_code":"SARN","location_type":0,"stop_lon":-82.38892,"stop_lat":42.95709,"stop_timezone":"America/Toronto","parent_station":null,"wheelchair_boarding":1,"GLOBALID":"1e3ed757-781c-4555-8c5c-986758686716"}},{"type":"Feature","id":5,"geometry":{"type":"Point","coordinates":[-73.507459792,45.4990791820001]},"properties":{"OBJECTID":5,"stop_id":343,"West_Seg1":"ORIG_FID_2_ORIG_SEQ_6","West_Seg2":null,"stop_name":"Saint-Lambert","East_Seg1":"ORIG_FID_2_ORIG_SEQ_7","East_Seg2":null,"stop_code":"SLAM","location_type":0,"stop_lon":-73.5074597921,"stop_lat":45.4990791825,"stop_timezone":"America/Toronto","parent_station":null,"wheelchair_boarding":null,"GLOBALID":"6d5a4f30-7682-4d61-beb3-e503f9045928"}},{"type":"Feature","id":11,"geometry":{"type":"Point","coordinates":[-75.692713,44.592113]},"properties":{"OBJECTID":11,"stop_id":35,"West_Seg1":"ORIG_FID_1_ORIG_SEQ_10","West_Seg2":null,"stop_name":"Brockville","East_Seg1":"ORIG_FID_1_ORIG_SEQ_11","East_Seg2":"ORIG_FID_5_ORIG_SEQ_11","stop_code":"BRKV","location_type":0,"stop_lon":-75.692713,"stop_lat":44.592113,"stop_timezone":"America/Toronto","parent_station":null,"wheelchair_boarding":1,"GLOBALID":"9915362a-dcf0-4cee-b5f0-d3e42bef8928"}},{"type":"Feature","id":12,"geometry":{"type":"Point","coordinates":[-79.6381409999999,43.704865]},"properties":{"OBJECTID":12,"stop_id":34,"West_Seg1":"ORIG_FID_7_ORIG_SEQ_2","West_Seg2":null,"stop_name":"Malton","East_Seg1":"ORIG_FID_7_ORIG_SEQ_1","East_Seg2":null,"stop_code":"MALT","location_type":0,"stop_lon":-79.638141,"stop_lat":43.704865,"stop_timezone":"America/Toronto","parent_station":null,"wheelchair_boarding":null,"GLOBALID":"c6f94f98-28ed-4862-a8f3-788334d602c2"}},{"type":"Feature","id":13,"geometry":{"type":"Point","coordinates":[-79.682462,43.4548950000001]},"properties":{"OBJECTID":13,"stop_id":436,"West_Seg1":"ORIG_FID_6_ORIG_SEQ_2","West_Seg2":null,"stop_name":"Oakville","East_Seg1":"ORIG_FID_6_ORIG_SEQ_1","East_Seg2":null,"stop_code":"OAKV","location_type":0,"stop_lon":-79.682462,"stop_lat":43.454895,"stop_timezone":"America/Toronto","parent_station":null,"wheelchair_boarding":1,"GLOBALID":"faa5e4c0-9afa-42ee-bf46-ef632a06f2d2"}},{"type":"Feature","id":14,"geometry":{"type":"Point","coordinates":[-73.74128,45.44892]},"properties":{"OBJECTID":14,"stop_id":332,"West_Seg1":"ORIG_FID_2_ORIG_SEQ_4","West_Seg2":null,"stop_name":"Dorval","East_Seg1":"ORIG_FID_2_ORIG_SEQ_5","East_Seg2":null,"stop_code":"DORV","location_type":0,"stop_lon":-73.74128,"stop_lat":45.44892,"stop_timezone":"America/Toronto","parent_station":null,"wheelchair_boarding":1,"GLOBALID":"711b4139-936a-4102-bed7-0eed118e53ba"}},{"type":"Feature","id":15,"geometry":{"type":"Point","coordinates":[-79.91912,43.65551]},"properties":{"OBJECTID":15,"stop_id":6,"West_Seg1":"ORIG_FID_7_ORIG_SEQ_4","West_Seg2":null,"stop_name":"Georgetown","East_Seg1":"ORIG_FID_7_ORIG_SEQ_3","East_Seg2":null,"stop_code":"GEOR","location_type":0,"stop_lon":-79.91912,"stop_lat":43.65551,"stop_timezone":"America/Toronto","parent_station":null,"wheelchair_boarding":null,"GLOBALID":"c0388505-f534-4437-a67a-d9b900b72bda"}},{"type":"Feature","id":16,"geometry":{"type":"Point","coordinates":[-81.2467339999999,42.9809900000001]},"properties":{"OBJECTID":16,"stop_id":93,"West_Seg1":"ORIG_FID_7_ORIG_SEQ_9","West_Seg2":"ORIG_FID_6_ORIG_SEQ_7","stop_name":"London","East_Seg1":"ORIG_FID_7_ORIG_SEQ_8","East_Seg2":"ORIG_FID_6_ORIG_SEQ_6","stop_code":"LNDN","location_type":0,"stop_lon":-81.246734,"stop_lat":42.98099,"stop_timezone":"America/Toronto","parent_station":null,"wheelchair_boarding":1,"GLOBALID":"f9140cfb-5679-4c41-974c-ab7cb6a3f396"}},{"type":"Feature","id":17,"geometry":{"type":"Point","coordinates":[-79.558178853,43.19602272]},"properties":{"OBJECTID":17,"stop_id":1,"West_Seg1":"ORIG_FID_8_ORIG_SEQ_3","West_Seg2":null,"stop_name":"Grimsby","East_Seg1":"ORIG_FID_8_ORIG_SEQ_4","East_Seg2":null,"stop_code":"GRIM","location_type":0,"stop_lon":-79.5581788527,"stop_lat":43.1960227197,"stop_timezone":"America/Toronto","parent_station":null,"wheelchair_boarding":null,"GLOBALID":"7b332b4a-46b0-4257-8d20-a4ae7057d442"}},{"type":"Feature","id":19,"geometry":{"type":"Point","coordinates":[-75.65151,45.4159900000001]},"properties":{"OBJECTID":19,"stop_id":617,"West_Seg1":"ORIG_FID_1_ORIG_SEQ_13","West_Seg2":null,"stop_name":"Ottawa","East_Seg1":"ORIG_FID_2_ORIG_SEQ_1","East_Seg2":null,"stop_code":"OTTW","location_type":0,"stop_lon":-75.65151,"stop_lat":45.41599,"stop_timezone":"America/Toronto","parent_station":null,"wheelchair_boarding":1,"GLOBALID":"f8d4afb9-e70f-42d6-8f16-8b921694bd7c"}},{"type":"Feature","id":21,"geometry":{"type":"Point","coordinates":[-71.2706122449999,46.7135459680001]},"properties":{"OBJECTID":21,"stop_id":492,"West_Seg1":"ORIG_FID_2_ORIG_SEQ_9","West_Seg2":null,"stop_name":"Charny","East_Seg1":"ORIG_FID_2_ORIG_SEQ_10","East_Seg2":null,"stop_code":"CHNY","location_type":0,"stop_lon":-71.2706122454,"stop_lat":46.7135459681,"stop_timezone":"America/Toronto","parent_station":null,"wheelchair_boarding":1,"GLOBALID":"46e01e03-331f-48b3-bcde-1ddef9edcbc3"}},{"type":"Feature","id":24,"geometry":{"type":"Point","coordinates":[-71.2975749889999,46.7542382950001]},"properties":{"OBJECTID":24,"stop_id":629,"West_Seg1":"ORIG_FID_2_ORIG_SEQ_10","West_Seg2":null,"stop_name":"Sainte-Foy","East_Seg1":"ORIG_FID_2_ORIG_SEQ_11","East_Seg2":null,"stop_code":"SFOY","location_type":0,"stop_lon":-71.2975749888,"stop_lat":46.7542382955,"stop_timezone":"America/Toronto","parent_station":null,"wheelchair_boarding":1,"GLOBALID":"81ad6ef6-7cd0-47da-9dbc-9f6e89526a7e"}},{"type":"Feature","id":25,"geometry":{"type":"Point","coordinates":[-71.214614282,46.8185710390001]},"properties":{"OBJECTID":25,"stop_id":628,"West_Seg1":"ORIG_FID_2_ORIG_SEQ_11","West_Seg2":null,"stop_name":"Quebec","East_Seg1":null,"East_Seg2":null,"stop_code":"QBEC","location_type":0,"stop_lon":-71.2146142824,"stop_lat":46.8185710392,"stop_timezone":"America/Toronto","parent_station":null,"wheelchair_boarding":null,"GLOBALID":"d409897c-1bb4-4630-944d-14a4fec38a13"}},{"type":"Feature","id":26,"geometry":{"type":"Point","coordinates":[-76.0240229999999,44.9124550000001]},"properties":{"OBJECTID":26,"stop_id":377,"West_Seg1":"ORIG_FID_1_ORIG_SEQ_11","West_Seg2":null,"stop_name":"Smiths Falls","East_Seg1":"ORIG_FID_1_ORIG_SEQ_12","East_Seg2":null,"stop_code":"SMTF","location_type":0,"stop_lon":-76.024023,"stop_lat":44.912455,"stop_timezone":"America/Toronto","parent_station":null,"wheelchair_boarding":null,"GLOBALID":"bd9c7eed-7b6f-4502-b513-6c827f3bbec7"}},{"type":"Feature","id":27,"geometry":{"type":"Point","coordinates":[-83.007134,42.324933]},"properties":{"OBJECTID":27,"stop_id":618,"West_Seg1":null,"West_Seg2":null,"stop_name":"Windsor","East_Seg1":"ORIG_FID_6_ORIG_SEQ_9","East_Seg2":null,"stop_code":"WDON","location_type":0,"stop_lon":-83.007134,"stop_lat":42.324933,"stop_timezone":"America/Toronto","parent_station":null,"wheelchair_boarding":1,"GLOBALID":"bd698445-7eaa-48f0-b2b9-1980cc6d2635"}},{"type":"Feature","id":28,"geometry":{"type":"Point","coordinates":[-80.9757413889999,43.3643734350001]},"properties":{"OBJECTID":28,"stop_id":7,"West_Seg1":"ORIG_FID_7_ORIG_SEQ_7","West_Seg2":null,"stop_name":"Stratford","East_Seg1":"ORIG_FID_7_ORIG_SEQ_6","East_Seg2":null,"stop_code":"STRF","location_type":0,"stop_lon":-80.9757413887,"stop_lat":43.3643734351,"stop_timezone":"America/Toronto","parent_station":null,"wheelchair_boarding":1,"GLOBALID":"c1283484-de82-4b39-b73c-221073cf9d85"}},{"type":"Feature","id":31,"geometry":{"type":"Point","coordinates":[-79.198263266,43.754823679]},"properties":{"OBJECTID":31,"stop_id":450,"West_Seg1":"ORIG_FID_1_ORIG_SEQ_1","West_Seg2":null,"stop_name":"Guildwood","East_Seg1":"ORIG_FID_1_ORIG_SEQ_2","East_Seg2":null,"stop_code":"GUIL","location_type":0,"stop_lon":-79.1982632662,"stop_lat":43.754823679,"stop_timezone":"America/Toronto","parent_station":null,"wheelchair_boarding":1,"GLOBALID":"95b8ccd2-d9cd-4ae3-a637-c22b69acb711"}},{"type":"Feature","id":32,"geometry":{"type":"Point","coordinates":[-78.17151,43.9677800000001]},"properties":{"OBJECTID":32,"stop_id":178,"West_Seg1":"ORIG_FID_1_ORIG_SEQ_4","West_Seg2":null,"stop_name":"Cobourg","East_Seg1":"ORIG_FID_1_ORIG_SEQ_5","East_Seg2":null,"stop_code":"CBRG","location_type":0,"stop_lon":-78.17151,"stop_lat":43.96778,"stop_timezone":"America/Toronto","parent_station":null,"wheelchair_boarding":1,"GLOBALID":"cb5ce71e-99c7-478f-afd4-a571b00dbffb"}},{"type":"Feature","id":36,"geometry":{"type":"Point","coordinates":[-79.2563772789999,43.147664322]},"properties":{"OBJECTID":36,"stop_id":185,"West_Seg1":"ORIG_FID_8_ORIG_SEQ_4","West_Seg2":null,"stop_name":"St. Catharines","East_Seg1":"ORIG_FID_8_ORIG_SEQ_5","East_Seg2":null,"stop_code":"SCAT","location_type":0,"stop_lon":-79.2563772794,"stop_lat":43.1476643217,"stop_timezone":"America/Toronto","parent_station":null,"wheelchair_boarding":1,"GLOBALID":"0f8c4914-4116-4a16-816a-0f0a9bfe7160"}},{"type":"Feature","id":38,"geometry":{"type":"Point","coordinates":[-81.1363901679999,43.2604007200001]},"properties":{"OBJECTID":38,"stop_id":11,"West_Seg1":"ORIG_FID_7_ORIG_SEQ_8","West_Seg2":null,"stop_name":"St. Marys","East_Seg1":"ORIG_FID_7_ORIG_SEQ_7","East_Seg2":null,"stop_code":"SMYS","location_type":0,"stop_lon":-81.1363901685,"stop_lat":43.2604007201,"stop_timezone":"America/Toronto","parent_station":null,"wheelchair_boarding":1,"GLOBALID":"4a06895c-2cbd-4487-86a5-dfa12307d2bf"}},{"type":"Feature","id":39,"geometry":{"type":"Point","coordinates":[-81.6229195339999,42.954682215]},"properties":{"OBJECTID":39,"stop_id":14,"West_Seg1":"ORIG_FID_7_ORIG_SEQ_10","West_Seg2":null,"stop_name":"Strathroy","East_Seg1":"ORIG_FID_7_ORIG_SEQ_9","East_Seg2":null,"stop_code":"STRR","location_type":0,"stop_lon":-81.6229195337,"stop_lat":42.9546822147,"stop_timezone":"America/Toronto","parent_station":null,"wheelchair_boarding":null,"GLOBALID":"ba27b2df-fd0e-4f78-9500-a30071f91bc3"}},{"type":"Feature","id":40,"geometry":{"type":"Point","coordinates":[-79.7644799999999,43.68685]},"properties":{"OBJECTID":40,"stop_id":322,"West_Seg1":"ORIG_FID_7_ORIG_SEQ_3","West_Seg2":null,"stop_name":"Brampton","East_Seg1":"ORIG_FID_7_ORIG_SEQ_2","East_Seg2":null,"stop_code":"BRMP","location_type":0,"stop_lon":-79.76448,"stop_lat":43.68685,"stop_timezone":"America/Toronto","parent_station":null,"wheelchair_boarding":1,"GLOBALID":"4e7ab0b5-aece-4854-89ff-08f939886212"}},{"type":"Feature","id":41,"geometry":{"type":"Point","coordinates":[-80.887906,43.0406300000001]},"properties":{"OBJECTID":41,"stop_id":323,"West_Seg1":"ORIG_FID_6_ORIG_SEQ_6","West_Seg2":null,"stop_name":"Ingersoll","East_Seg1":"ORIG_FID_6_ORIG_SEQ_5","East_Seg2":null,"stop_code":"INGR","location_type":0,"stop_lon":-80.887906,"stop_lat":43.04063,"stop_timezone":"America/Toronto","parent_station":null,"wheelchair_boarding":null,"GLOBALID":"766bdcc9-6571-4bd7-8e64-1b1b82b5e403"}},{"type":"Feature","id":43,"geometry":{"type":"Point","coordinates":[-76.1537299999999,44.36881]},"properties":{"OBJECTID":43,"stop_id":200,"West_Seg1":"ORIG_FID_1_ORIG_SEQ_9","West_Seg2":null,"stop_name":"Gananoque","East_Seg1":"ORIG_FID_1_ORIG_SEQ_10","East_Seg2":null,"stop_code":"GANA","location_type":0,"stop_lon":-76.15373,"stop_lat":44.36881,"stop_timezone":"America/Toronto","parent_station":null,"wheelchair_boarding":null,"GLOBALID":"37fd9ed4-124d-471d-9294-32a3705eab1f"}},{"type":"Feature","id":44,"geometry":{"type":"Point","coordinates":[-80.245602,43.5452510000001]},"properties":{"OBJECTID":44,"stop_id":70,"West_Seg1":"ORIG_FID_7_ORIG_SEQ_5","West_Seg2":null,"stop_name":"Guelph","East_Seg1":"ORIG_FID_7_ORIG_SEQ_4","East_Seg2":null,"stop_code":"GUEL","location_type":0,"stop_lon":-80.245602,"stop_lat":43.545251,"stop_timezone":"America/Toronto","parent_station":null,"wheelchair_boarding":1,"GLOBALID":"8ea537f9-5d6c-4653-acfb-7a38a0e30d9f"}},{"type":"Feature","id":45,"geometry":{"type":"Point","coordinates":[-81.71155,42.745843]},"properties":{"OBJECTID":45,"stop_id":78,"West_Seg1":"ORIG_FID_6_ORIG_SEQ_8","West_Seg2":null,"stop_name":"Glencoe","East_Seg1":"ORIG_FID_6_ORIG_SEQ_7","East_Seg2":null,"stop_code":"GLNC","location_type":0,"stop_lon":-81.71155,"stop_lat":42.745843,"stop_timezone":"America/Toronto","parent_station":null,"wheelchair_boarding":null,"GLOBALID":"328ef647-b766-4465-a5b2-5d7bc5946c93"}},{"type":"Feature","id":47,"geometry":{"type":"Point","coordinates":[-77.3745499999999,44.17961]},"properties":{"OBJECTID":47,"stop_id":415,"West_Seg1":"ORIG_FID_1_ORIG_SEQ_6","West_Seg2":null,"stop_name":"Belleville","East_Seg1":"ORIG_FID_1_ORIG_SEQ_7","East_Seg2":null,"stop_code":"BLVL","location_type":0,"stop_lon":-77.37455,"stop_lat":44.17961,"stop_timezone":"America/Toronto","parent_station":null,"wheelchair_boarding":1,"GLOBALID":"e9a0a850-1aca-46c9-81fb-ddaebe9abee7"}},{"type":"Feature","id":48,"geometry":{"type":"Point","coordinates":[-77.598805579,44.1152523100001]},"properties":{"OBJECTID":48,"stop_id":413,"West_Seg1":"ORIG_FID_1_ORIG_SEQ_5","West_Seg2":null,"stop_name":"Trenton Junction","East_Seg1":"ORIG_FID_1_ORIG_SEQ_6","East_Seg2":null,"stop_code":"TRNJ","location_type":0,"stop_lon":-77.5988055795,"stop_lat":44.1152523097,"stop_timezone":"America/Toronto","parent_station":null,"wheelchair_boarding":null,"GLOBALID":"4df81e6d-7ac4-45a9-99f6-a915b97276bd"}},{"type":"Feature","id":49,"geometry":{"type":"Point","coordinates":[-75.087197389,45.3122868990001]},"properties":{"OBJECTID":49,"stop_id":419,"West_Seg1":"ORIG_FID_2_ORIG_SEQ_1","West_Seg2":null,"stop_name":"Casselman","East_Seg1":"ORIG_FID_2_ORIG_SEQ_2","East_Seg2":null,"stop_code":"CSLM","location_type":0,"stop_lon":-75.0871973889,"stop_lat":45.3122868987,"stop_timezone":"America/Toronto","parent_station":null,"wheelchair_boarding":null,"GLOBALID":"d887a776-875d-4237-b9d6-6cb6771b8559"}},{"type":"Feature","id":51,"geometry":{"type":"Point","coordinates":[-78.884625828,43.8708276]},"properties":{"OBJECTID":51,"stop_id":367,"West_Seg1":"ORIG_FID_1_ORIG_SEQ_2","West_Seg2":null,"stop_name":"Oshawa","East_Seg1":"ORIG_FID_1_ORIG_SEQ_3","East_Seg2":null,"stop_code":"OSHA","location_type":0,"stop_lon":-78.884625828,"stop_lat":43.8708276005,"stop_timezone":"America/Toronto","parent_station":null,"wheelchair_boarding":1,"GLOBALID":"8d99ae0a-a5a1-4413-8d21-23e04181fd1e"}},{"type":"Feature","id":52,"geometry":{"type":"Point","coordinates":[-75.736708,45.2993030000001]},"properties":{"OBJECTID":52,"stop_id":576,"West_Seg1":"ORIG_FID_1_ORIG_SEQ_12","West_Seg2":null,"stop_name":"Fallowfield","East_Seg1":"ORIG_FID_1_ORIG_SEQ_13","East_Seg2":null,"stop_code":"FALL","location_type":0,"stop_lon":-75.736708,"stop_lat":45.299303,"stop_timezone":"America/Toronto","parent_station":null,"wheelchair_boarding":1,"GLOBALID":"c71b00fd-892c-407d-9416-2194d8c2d60a"}},{"type":"Feature","id":55,"geometry":{"type":"Point","coordinates":[-72.487905,45.882431]},"properties":{"OBJECTID":55,"stop_id":630,"West_Seg1":"ORIG_FID_2_ORIG_SEQ_8","West_Seg2":null,"stop_name":"Drummondville","East_Seg1":"ORIG_FID_2_ORIG_SEQ_9","East_Seg2":null,"stop_code":"DRMV","location_type":0,"stop_lon":-72.487905,"stop_lat":45.882431,"stop_timezone":"America/Toronto","parent_station":null,"wheelchair_boarding":1,"GLOBALID":"0acfb60b-2839-489e-8707-1edfd24e418d"}},{"type":"Feature","id":56,"geometry":{"type":"Point","coordinates":[-72.948931428,45.627707618]},"properties":{"OBJECTID":56,"stop_id":631,"West_Seg1":"ORIG_FID_2_ORIG_SEQ_7","West_Seg2":null,"stop_name":"Saint-Hyacinthe","East_Seg1":"ORIG_FID_2_ORIG_SEQ_8","East_Seg2":null,"stop_code":"SHYA","location_type":0,"stop_lon":-72.9489314282,"stop_lat":45.6277076183,"stop_timezone":"America/Toronto","parent_station":null,"wheelchair_boarding":1,"GLOBALID":"9ef35bc7-ea0f-42d4-ad72-3b440f4fdbb6"}},{"type":"Feature","id":58,"geometry":{"type":"Point","coordinates":[-80.265709,43.146686]},"properties":{"OBJECTID":58,"stop_id":162,"West_Seg1":"ORIG_FID_6_ORIG_SEQ_4","West_Seg2":"ORIG_FID_6_ORIG_SEQ_3","stop_name":"Brantford","East_Seg1":null,"East_Seg2":null,"stop_code":"BRTF","location_type":0,"stop_lon":-80.265709,"stop_lat":43.146686,"stop_timezone":"America/Toronto","parent_station":null,"wheelchair_boarding":1,"GLOBALID":"3e4335b3-296b-4354-a31d-79ee360438fe"}},{"type":"Feature","id":59,"geometry":{"type":"Point","coordinates":[-79.8550089999999,43.312886]},"properties":{"OBJECTID":59,"stop_id":600,"West_Seg1":"ORIG_FID_6_ORIG_SEQ_3","West_Seg2":null,"stop_name":"Aldershot","East_Seg1":"ORIG_FID_6_ORIG_SEQ_2","East_Seg2":"ORIG_FID_8_ORIG_SEQ_3","stop_code":"ALDR","location_type":0,"stop_lon":-79.855009,"stop_lat":43.312886,"stop_timezone":"America/Toronto","parent_station":null,"wheelchair_boarding":1,"GLOBALID":"f7ecea91-f66f-4088-bf27-651f8b514418"}},{"type":"Feature","id":60,"geometry":{"type":"Point","coordinates":[-78.2990169999999,43.9435920000001]},"properties":{"OBJECTID":60,"stop_id":9,"West_Seg1":"ORIG_FID_1_ORIG_SEQ_3","West_Seg2":null,"stop_name":"Port Hope","East_Seg1":"ORIG_FID_1_ORIG_SEQ_4","East_Seg2":null,"stop_code":"PHOP","location_type":0,"stop_lon":-78.299017,"stop_lat":43.943592,"stop_timezone":"America/Toronto","parent_station":null,"wheelchair_boarding":null,"GLOBALID":"78762207-56af-4760-8680-bb66dabb4de1"}},{"type":"Feature","id":62,"geometry":{"type":"Point","coordinates":[-74.23292,45.2748800000001]},"properties":{"OBJECTID":62,"stop_id":351,"West_Seg1":"ORIG_FID_2_ORIG_SEQ_3","West_Seg2":"ORIG_FID_5_ORIG_SEQ_12","stop_name":"Coteau","East_Seg1":"ORIG_FID_2_ORIG_SEQ_4","East_Seg2":null,"stop_code":"COTO","location_type":0,"stop_lon":-74.232919999999993,"stop_lat":45.27488,"stop_timezone":"America/Toronto","parent_station":null,"wheelchair_boarding":1,"GLOBALID":"eeb3e050-a261-428e-b1c1-c7f7233598dd"}},{"type":"Feature","id":64,"geometry":{"type":"Point","coordinates":[-82.12226,42.9479600000001]},"properties":{"OBJECTID":64,"stop_id":280,"West_Seg1":"ORIG_FID_7_ORIG_SEQ_11","West_Seg2":null,"stop_name":"Wyoming","East_Seg1":"ORIG_FID_7_ORIG_SEQ_10","East_Seg2":null,"stop_code":"WYOM","location_type":0,"stop_lon":-82.12226,"stop_lat":42.94796,"stop_timezone":"America/Toronto","parent_station":null,"wheelchair_boarding":null,"GLOBALID":"21b3ada2-b5c8-4450-85a2-e0a388c92eea"}},{"type":"Feature","id":65,"geometry":{"type":"Point","coordinates":[-80.752123,43.1265280000001]},"properties":{"OBJECTID":65,"stop_id":282,"West_Seg1":"ORIG_FID_6_ORIG_SEQ_5","West_Seg2":null,"stop_name":"Woodstock","East_Seg1":"ORIG_FID_6_ORIG_SEQ_5","East_Seg2":null,"stop_code":"WDST","location_type":0,"stop_lon":-80.752123,"stop_lat":43.126528,"stop_timezone":"America/Toronto","parent_station":null,"wheelchair_boarding":1,"GLOBALID":"df1a6c04-7d7e-4db0-8da8-b034f9a5d88c"}},{"type":"Feature","id":67,"geometry":{"type":"Point","coordinates":[-76.536623178,44.2570164470001]},"properties":{"OBJECTID":67,"stop_id":58,"West_Seg1":"ORIG_FID_1_ORIG_SEQ_8","West_Seg2":null,"stop_name":"Kingston","East_Seg1":"ORIG_FID_1_ORIG_SEQ_9","East_Seg2":null,"stop_code":"KGON","location_type":0,"stop_lon":-76.5366231779,"stop_lat":44.257016447,"stop_timezone":"America/Toronto","parent_station":null,"wheelchair_boarding":1,"GLOBALID":"0ba076c8-451f-42cb-856c-ee662d7b2447"}},{"type":"Feature","id":69,"geometry":{"type":"Point","coordinates":[-79.38032,43.6448100000001]},"properties":{"OBJECTID":69,"stop_id":119,"West_Seg1":"ORIG_FID_7_ORIG_SEQ_1","West_Seg2":"ORIG_FID_6_ORIG_SEQ_1","stop_name":"Toronto","East_Seg1":"ORIG_FID_1_ORIG_SEQ_1","East_Seg2":null,"stop_code":"TRTO","location_type":0,"stop_lon":-79.38032,"stop_lat":43.64481,"stop_timezone":"America/Toronto","parent_station":null,"wheelchair_boarding":1,"GLOBALID":"4aba28c3-cdcf-48aa-b12d-316d13c9c275"}},{"type":"Feature","id":70,"geometry":{"type":"Point","coordinates":[-76.954262,44.25365]},"properties":{"OBJECTID":70,"stop_id":309,"West_Seg1":"ORIG_FID_1_ORIG_SEQ_7","West_Seg2":null,"stop_name":"Napanee","East_Seg1":"ORIG_FID_1_ORIG_SEQ_8","East_Seg2":null,"stop_code":"NAPN","location_type":0,"stop_lon":-76.954262,"stop_lat":44.25365,"stop_timezone":"America/Toronto","parent_station":null,"wheelchair_boarding":null,"GLOBALID":"726f5006-1f79-41bf-b0f2-fcd984228824"}},{"type":"Feature","id":73,"geometry":{"type":"Point","coordinates":[-73.566178542,45.499919521]},"properties":{"OBJECTID":73,"stop_id":226,"West_Seg1":"ORIG_FID_2_ORIG_SEQ_5","West_Seg2":null,"stop_name":"Montreal","East_Seg1":"ORIG_FID_2_ORIG_SEQ_6","East_Seg2":null,"stop_code":"MTRL","location_type":0,"stop_lon":-73.5661785423,"stop_lat":45.4999195215,"stop_timezone":"America/Toronto","parent_station":null,"wheelchair_boarding":1,"GLOBALID":"db0d97e1-c0de-48a4-ad39-9c2d07b800eb"}},{"type":"Feature","id":75,"geometry":{"type":"Point","coordinates":[-80.4932068749999,43.455741033]},"properties":{"OBJECTID":75,"stop_id":114,"West_Seg1":"ORIG_FID_7_ORIG_SEQ_6","West_Seg2":null,"stop_name":"Kitchener","East_Seg1":"ORIG_FID_7_ORIG_SEQ_5","East_Seg2":null,"stop_code":"KITC","location_type":0,"stop_lon":-80.4932068748,"stop_lat":43.4557410329,"stop_timezone":"America/Toronto","parent_station":null,"wheelchair_boarding":1,"GLOBALID":"143a7127-81bf-4e5c-b7be-4acad9257951"}},{"type":"Feature","id":76,"geometry":{"type":"Point","coordinates":[-82.179615,42.3972640000001]},"properties":{"OBJECTID":76,"stop_id":601,"West_Seg1":"ORIG_FID_6_ORIG_SEQ_9","West_Seg2":"ORIG_FID_6_ORIG_SEQ_8","stop_name":"Chatham","East_Seg1":null,"East_Seg2":null,"stop_code":"CHAT","location_type":0,"stop_lon":-82.179615,"stop_lat":42.397264,"stop_timezone":"America/Toronto","parent_station":null,"wheelchair_boarding":1,"GLOBALID":"0a6f2d14-fb60-406b-83a9-6ccbdac02558"}},{"type":"Feature","id":77,"geometry":{"type":"Point","coordinates":[-74.74346322,45.042228476]},"properties":{"OBJECTID":77,"stop_id":602,"West_Seg1":"ORIG_FID_5_ORIG_SEQ_11","West_Seg2":null,"stop_name":"Cornwall","East_Seg1":"ORIG_FID_5_ORIG_SEQ_12","East_Seg2":null,"stop_code":"CWLL","location_type":0,"stop_lon":-74.7434632201,"stop_lat":45.0422284762,"stop_timezone":"America/Toronto","parent_station":null,"wheelchair_boarding":1,"GLOBALID":"c823c370-816b-4293-848e-e7385124f40e"}}]}